NAVSTAR 59 (USA 192)    
1 29601U 06052A   25326.00694108  .00000033  00000+0  00000+0 0  9991
2 29601  54.9754 222.2212 0087181  87.2227 273.8552  2.00572154139258
NAVSTAR 60 (USA 196)    
1 32260U 07047A   25327.30912074  .00000001  00000+0  00000+0 0  9995
2 32260  53.9423  88.5613 0164506  85.0009 276.8534  2.00565368132686
NAVSTAR 61 (USA 199)    
1 32384U 07062A   25327.85222766 -.00000025  00000+0  00000+0 0  9998
2 32384  55.1988 282.4035 0032175 163.1793 359.3195  2.00576419131396
NAVSTAR 62 (USA 201)    
1 32711U 08012A   25327.72807832  .00000078  00000+0  00000+0 0  9994
2 32711  54.4743 158.1321 0201737 244.7419 113.2007  2.00564797129630
NAVSTAR 63 (USA 203)    
1 34661U 09014A   25327.87544677  .00000032  00000+0  00000+0 0  9994
2 34661  54.5228 218.8896 0143108  60.7285 115.1404  2.00558593122160
NAVSTAR 64 (USA 206)    
1 35752U 09043A   25327.21966627 -.00000067  00000+0  00000+0 0  9998
2 35752  56.0779  35.5532 0052385  82.1969 288.7045  2.00566975119239
NAVSTAR 65 (USA 213)    
1 36585U 10022A   25326.32196149  .00000039  00000+0  00000+0 0  9995
2 36585  54.3039 216.8975 0125208  64.8402 137.0897  2.00552181113445
NAVSTAR 66 (USA 232)    
1 37753U 11036A   25327.97180836 -.00000063  00000+0  00000+0 0  9995
2 37753  56.6540 340.0030 0135118  60.5590 316.8779  2.00564524105169
NAVSTAR 67 (USA 239)    
1 38833U 12053A   25326.40974208  .00000071  00000+0  00000+0 0  9994
2 38833  53.5538 152.0715 0175163  63.6857 298.1460  2.00564876 95298
NAVSTAR 68 (USA 242)    
1 39166U 13023A   25325.77496937 -.00000033  00000+0  00000+0 0  9998
2 39166  54.6704 277.4204 0136616  48.3895 312.7623  2.00565301 91724
NAVSTAR 69 (USA 248)    
1 39533U 14008A   25327.76430727  .00000076  00000+0  00000+0 0  9992
2 39533  53.6277 157.6988 0078777 226.2644 133.1274  2.00573369 85561
NAVSTAR 70 (USA 251)    
1 39741U 14026A   25327.54755068 -.00000065  00000+0  00000+0 0  9996
2 39741  56.5906 339.5234 0038590 317.7614  41.9757  2.00562812 84416
NAVSTAR 71 (USA 256)    
1 40105U 14045A   25326.14049128  .00000006  00000+0  00000+0 0  9995
2 40105  55.2164  96.7208 0033096 119.3570 240.9474  2.00571349 81925
