[
    {
        "OBJECT_NAME": "NAVSTAR 59 (USA 192)",
        "OBJECT_ID": "2006-052A",
        "EPOCH": "2025-11-22T00:09:59.709312",
        "MEAN_MOTION": 2.00572154,
        "ECCENTRICITY": 0.00871812,
        "INCLINATION": 54.9754,
        "RA_OF_ASC_NODE": 222.2212,
        "ARG_OF_PERICENTER": 87.2227,
        "MEAN_ANOMALY": 273.8552,
        "EPHEMERIS_TYPE": 0,
        "CLASSIFICATION_TYPE": "U",
        "NORAD_CAT_ID": 29601,
        "ELEMENT_SET_NO": 999,
        "REV_AT_EPOCH": 13925,
        "BSTAR": 0,
        "MEAN_MOTION_DOT": 3.3e-07,
        "MEAN_MOTION_DDOT": 0
    },
    {
        "OBJECT_NAME": "NAVSTAR 60 (USA 196)",
        "OBJECT_ID": "2007-047A",
        "EPOCH": "2025-11-23T07:25:08.031936",
        "MEAN_MOTION": 2.00565368,
        "ECCENTRICITY": 0.0164506,
        "INCLINATION": 53.9423,
        "RA_OF_ASC_NODE": 88.5613,
        "ARG_OF_PERICENTER": 85.0009,
        "MEAN_ANOMALY": 276.8534,
        "EPHEMERIS_TYPE": 0,
        "CLASSIFICATION_TYPE": "U",
        "NORAD_CAT_ID": 32260,
        "ELEMENT_SET_NO": 999,
        "REV_AT_EPOCH": 13268,
        "BSTAR": 0,
        "MEAN_MOTION_DOT": 1e-08,
        "MEAN_MOTION_DDOT": 0
    },
    {
        "OBJECT_NAME": "NAVSTAR 61 (USA 199)",
        "OBJECT_ID": "2007-062A",
        "EPOCH": "2025-11-23T20:27:12.469824",
        "MEAN_MOTION": 2.00576419,
        "ECCENTRICITY": 0.0032175,
        "INCLINATION": 55.1988,
        "RA_OF_ASC_NODE": 282.4035,
        "ARG_OF_PERICENTER": 163.1793,
        "MEAN_ANOMALY": 359.3195,
        "EPHEMERIS_TYPE": 0,
        "CLASSIFICATION_TYPE": "U",
        "NORAD_CAT_ID": 32384,
        "ELEMENT_SET_NO": 999,
        "REV_AT_EPOCH": 13139,
        "BSTAR": 0,
        "MEAN_MOTION_DOT": -2.5e-07,
        "MEAN_MOTION_DDOT": 0
    },
    {
        "OBJECT_NAME": "NAVSTAR 62 (USA 201)",
        "OBJECT_ID": "2008-012A",
        "EPOCH": "2025-11-23T17:28:25.966848",
        "MEAN_MOTION": 2.00564797,
        "ECCENTRICITY": 0.0201737,
        "INCLINATION": 54.4743,
        "RA_OF_ASC_NODE": 158.1321,
        "ARG_OF_PERICENTER": 244.7419,
        "MEAN_ANOMALY": 113.2007,
        "EPHEMERIS_TYPE": 0,
        "CLASSIFICATION_TYPE": "U",
        "NORAD_CAT_ID": 32711,
        "ELEMENT_SET_NO": 999,
        "REV_AT_EPOCH": 12963,
        "BSTAR": 0,
        "MEAN_MOTION_DOT": 7.8e-07,
        "MEAN_MOTION_DDOT": 0
    },
    {
        "OBJECT_NAME": "NAVSTAR 63 (USA 203)",
        "OBJECT_ID": "2009-014A",
        "EPOCH": "2025-11-23T21:00:38.600928",
        "MEAN_MOTION": 2.00558593,
        "ECCENTRICITY": 0.0143108,
        "INCLINATION": 54.5228,
        "RA_OF_ASC_NODE": 218.8896,
        "ARG_OF_PERICENTER": 60.7285,
        "MEAN_ANOMALY": 115.1404,
        "EPHEMERIS_TYPE": 0,
        "CLASSIFICATION_TYPE": "U",
        "NORAD_CAT_ID": 34661,
        "ELEMENT_SET_NO": 999,
        "REV_AT_EPOCH": 12216,
        "BSTAR": 0,
        "MEAN_MOTION_DOT": 3.2e-07,
        "MEAN_MOTION_DDOT": 0
    },
    {
        "OBJECT_NAME": "NAVSTAR 64 (USA 206)",
        "OBJECT_ID": "2009-043A",
        "EPOCH": "2025-11-23T05:16:19.165728",
        "MEAN_MOTION": 2.00566975,
        "ECCENTRICITY": 0.0052385,
        "INCLINATION": 56.0779,
        "RA_OF_ASC_NODE": 35.5532,
        "ARG_OF_PERICENTER": 82.1969,
        "MEAN_ANOMALY": 288.7045,
        "EPHEMERIS_TYPE": 0,
        "CLASSIFICATION_TYPE": "U",
        "NORAD_CAT_ID": 35752,
        "ELEMENT_SET_NO": 999,
        "REV_AT_EPOCH": 11923,
        "BSTAR": 0,
        "MEAN_MOTION_DOT": -6.7e-07,
        "MEAN_MOTION_DDOT": 0
    },
    {
        "OBJECT_NAME": "NAVSTAR 65 (USA 213)",
        "OBJECT_ID": "2010-022A",
        "EPOCH": "2025-11-22T07:43:37.472736",
        "MEAN_MOTION": 2.00552181,
        "ECCENTRICITY": 0.01252082,
        "INCLINATION": 54.3039,
        "RA_OF_ASC_NODE": 216.8975,
        "ARG_OF_PERICENTER": 64.8402,
        "MEAN_ANOMALY": 137.0897,
        "EPHEMERIS_TYPE": 0,
        "CLASSIFICATION_TYPE": "U",
        "NORAD_CAT_ID": 36585,
        "ELEMENT_SET_NO": 999,
        "REV_AT_EPOCH": 11344,
        "BSTAR": 0,
        "MEAN_MOTION_DOT": 3.9e-07,
        "MEAN_MOTION_DDOT": 0
    },
    {
        "OBJECT_NAME": "NAVSTAR 66 (USA 232)",
        "OBJECT_ID": "2011-036A",
        "EPOCH": "2025-11-23T23:19:24.242304",
        "MEAN_MOTION": 2.00564524,
        "ECCENTRICITY": 0.0135118,
        "INCLINATION": 56.654,
        "RA_OF_ASC_NODE": 340.003,
        "ARG_OF_PERICENTER": 60.559,
        "MEAN_ANOMALY": 316.8779,
        "EPHEMERIS_TYPE": 0,
        "CLASSIFICATION_TYPE": "U",
        "NORAD_CAT_ID": 37753,
        "ELEMENT_SET_NO": 999,
        "REV_AT_EPOCH": 10516,
        "BSTAR": 0,
        "MEAN_MOTION_DOT": -6.3e-07,
        "MEAN_MOTION_DDOT": 0
    },
    {
        "OBJECT_NAME": "NAVSTAR 67 (USA 239)",
        "OBJECT_ID": "2012-053A",
        "EPOCH": "2025-11-22T09:50:01.715712",
        "MEAN_MOTION": 2.00564876,
        "ECCENTRICITY": 0.0175163,
        "INCLINATION": 53.5538,
        "RA_OF_ASC_NODE": 152.0715,
        "ARG_OF_PERICENTER": 63.6857,
        "MEAN_ANOMALY": 298.146,
        "EPHEMERIS_TYPE": 0,
        "CLASSIFICATION_TYPE": "U",
        "NORAD_CAT_ID": 38833,
        "ELEMENT_SET_NO": 999,
        "REV_AT_EPOCH": 9529,
        "BSTAR": 0,
        "MEAN_MOTION_DOT": 7.1e-07,
        "MEAN_MOTION_DDOT": 0
    },
    {
        "OBJECT_NAME": "NAVSTAR 68 (USA 242)",
        "OBJECT_ID": "2013-023A",
        "EPOCH": "2025-11-21T18:35:57.353568",
        "MEAN_MOTION": 2.00565301,
        "ECCENTRICITY": 0.01366164,
        "INCLINATION": 54.6704,
        "RA_OF_ASC_NODE": 277.4204,
        "ARG_OF_PERICENTER": 48.3895,
        "MEAN_ANOMALY": 312.7623,
        "EPHEMERIS_TYPE": 0,
        "CLASSIFICATION_TYPE": "U",
        "NORAD_CAT_ID": 39166,
        "ELEMENT_SET_NO": 999,
        "REV_AT_EPOCH": 9172,
        "BSTAR": 0,
        "MEAN_MOTION_DOT": -3.3e-07,
        "MEAN_MOTION_DDOT": 0
    },
    {
        "OBJECT_NAME": "NAVSTAR 69 (USA 248)",
        "OBJECT_ID": "2014-008A",
        "EPOCH": "2025-11-23T18:20:36.148128",
        "MEAN_MOTION": 2.00573369,
        "ECCENTRICITY": 0.0078777,
        "INCLINATION": 53.6277,
        "RA_OF_ASC_NODE": 157.6988,
        "ARG_OF_PERICENTER": 226.2644,
        "MEAN_ANOMALY": 133.1274,
        "EPHEMERIS_TYPE": 0,
        "CLASSIFICATION_TYPE": "U",
        "NORAD_CAT_ID": 39533,
        "ELEMENT_SET_NO": 999,
        "REV_AT_EPOCH": 8556,
        "BSTAR": 0,
        "MEAN_MOTION_DOT": 7.6e-07,
        "MEAN_MOTION_DDOT": 0
    },
    {
        "OBJECT_NAME": "NAVSTAR 70 (USA 251)",
        "OBJECT_ID": "2014-026A",
        "EPOCH": "2025-11-23T13:08:28.378752",
        "MEAN_MOTION": 2.00562812,
        "ECCENTRICITY": 0.003859,
        "INCLINATION": 56.5906,
        "RA_OF_ASC_NODE": 339.5234,
        "ARG_OF_PERICENTER": 317.7614,
        "MEAN_ANOMALY": 41.9757,
        "EPHEMERIS_TYPE": 0,
        "CLASSIFICATION_TYPE": "U",
        "NORAD_CAT_ID": 39741,
        "ELEMENT_SET_NO": 999,
        "REV_AT_EPOCH": 8441,
        "BSTAR": 0,
        "MEAN_MOTION_DOT": -6.5e-07,
        "MEAN_MOTION_DDOT": 0
    },
    {
        "OBJECT_NAME": "NAVSTAR 71 (USA 256)",
        "OBJECT_ID": "2014-045A",
        "EPOCH": "2025-11-22T03:22:18.446592",
        "MEAN_MOTION": 2.00571349,
        "ECCENTRICITY": 0.0033096,
        "INCLINATION": 55.2164,
        "RA_OF_ASC_NODE": 96.7208,
        "ARG_OF_PERICENTER": 119.357,
        "MEAN_ANOMALY": 240.9474,
        "EPHEMERIS_TYPE": 0,
        "CLASSIFICATION_TYPE": "U",
        "NORAD_CAT_ID": 40105,
        "ELEMENT_SET_NO": 999,
        "REV_AT_EPOCH": 8192,
        "BSTAR": 0,
        "MEAN_MOTION_DOT": 6e-08,
        "MEAN_MOTION_DDOT": 0
    }
]